[
    {
        "Altitude(m)": 604969.0892031813,
        "Argument of Periapsis(deg)": 0.0,
        "Eccentricity": 0.0,
        "Inclination(deg)": 60.0,
        "Latitude(deg)": -0.092716496945557,
        "Longitude(deg)": -40.02247226057366,
        "Mean Anomaly(deg)": 0.0,
        "RAAN(deg)": 60.0,
        "Satellite Name": "Test1 264",
        "Satellite Number": 264,
        "Semi-Major Axis(m)": 6980739.136638005,
        "Time(s)": 0
    },
    {
        "Altitude(m)": 604900.0283121809,
        "Argument of Periapsis(deg)": 0.00010418945913296404,
        "Eccentricity": 0.0,
        "Inclination(deg)": 60.0,
        "Latitude(deg)": 0.4477097928697703,
        "Longitude(deg)": -39.754350017641784,
        "Mean Anomaly(deg)": 0.6201061454618275,
        "RAAN(deg)": 59.99957995086026,
        "Satellite Name": "Test1 264",
        "Satellite Number": 264,
        "Semi-Major Axis(m)": 6980739.136638005,
        "Time(s)": 10
    }
]